[
  {
    "name": "KUIPER-00250",
    "noradId": "67155",
    "line1": "1 67155U 25301Y   26170.65743397  .00000173  00000+0  51705-4 0  9997",
    "line2": "2 67155  51.9009 339.6969 0000495  77.2093 282.8925 14.79929415 28794"
  },
  {
    "name": "KUIPER-00251",
    "noradId": "67156",
    "line1": "1 67156U 25301Z   26170.67090905  .00002810  00000+0  39751-3 0  9996",
    "line2": "2 67156  51.9009 327.2014 0000496 162.1159 197.9820 14.79924055 29120"
  },
  {
    "name": "KUIPER-00252",
    "noradId": "67157",
    "line1": "1 67157U 25301AA  26170.66822664  .00000075  00000+0  38840-4 0  9991",
    "line2": "2 67157  51.9017 329.6640 0000830 124.1684 235.9357 14.79929909 28900"
  },
  {
    "name": "KUIPER-00261",
    "noradId": "67158",
    "line1": "1 67158U 25301AB  26170.82626985  .00000130  00000+0  46112-4 0  9991",
    "line2": "2 67158  51.9037 339.0155 0000764 115.8912 244.2129 14.79930186 28781"
  },
  {
    "name": "KUIPER-00265",
    "noradId": "67159",
    "line1": "1 67159U 25301AC  26170.70878786  .00001087  00000+0  17158-3 0  9996",
    "line2": "2 67159  51.9028 354.5066 0000599 117.4146 242.6877 14.79931528 28590"
  },
  {
    "name": "KUIPER-00159",
    "noradId": "67764",
    "line1": "1 67764U 26030A   26170.18340891  .00027086  00000+0  71448-3 0  9990",
    "line2": "2 67764  51.8852  88.6824 0006921  53.0690 307.0931 15.38267141 20708"
  },
  {
    "name": "KUIPER-00160",
    "noradId": "67765",
    "line1": "1 67765U 26030B   26170.05264588  .00039513  00000+0  10228-2 0  9991",
    "line2": "2 67765  51.8814  89.2585 0006732  63.1922 296.9754 15.38657074 20682"
  },
  {
    "name": "KUIPER-00177",
    "noradId": "67766",
    "line1": "1 67766U 26030C   26170.85826848  .00000545  00000+0  10055-3 0  9995",
    "line2": "2 67766  51.9009 121.3342 0000770  77.7233 282.3816 14.79933498 20309"
  },
  {
    "name": "KUIPER-00178",
    "noradId": "67767",
    "line1": "1 67767U 26030D   26170.83335647  .00077164  00000+0  10066-1 0  9997",
    "line2": "2 67767  51.8994 121.4254 0000501 116.0247 291.7728 14.79802633  5012"
  },
  {
    "name": "KUIPER-00180",
    "noradId": "67768",
    "line1": "1 67768U 26030E   26170.15460036  .00002552  00000+0  36360-3 0  9990",
    "line2": "2 67768  51.8988 119.4357 0000747  76.9150 283.1895 14.79934847 20274"
  },
  {
    "name": "KUIPER-00197",
    "noradId": "67769",
    "line1": "1 67769U 26030F   26170.83335647  .00036392  00000+0  49792-2 0  9996",
    "line2": "2 67769  51.8986  96.4353 0001674 122.7037 145.8854 14.78178238  5856"
  },
  {
    "name": "KUIPER-00198",
    "noradId": "67770",
    "line1": "1 67770U 26030G   26170.53409536 -.00000006  00000+0  28184-4 0  9992",
    "line2": "2 67770  51.8958 110.2535 0000916 103.2022 256.9043 14.79926424 20434"
  },
  {
    "name": "KUIPER-00199",
    "noradId": "67771",
    "line1": "1 67771U 26030H   26170.05892492  .00024456  00000+0  68579-3 0  9992",
    "line2": "2 67771  51.8810  90.7662 0011735  64.1872 296.0323 15.36386354 20661"
  },
  {
    "name": "KUIPER-00200",
    "noradId": "67772",
    "line1": "1 67772U 26030J   26170.83335647 -.00003718  00000+0 -25267-3 0  9990",
    "line2": "2 67772  51.8921  94.7945 0004774  83.3640 330.4945 15.03061552  4966"
  },
  {
    "name": "KUIPER-00203",
    "noradId": "67773",
    "line1": "1 67773U 26030K   26170.85287279  .00002429  00000+0  34743-3 0  9995",
    "line2": "2 67773  51.9055 126.3874 0000822  72.0616 288.0436 14.79935923 20232"
  },
  {
    "name": "KUIPER-00205",
    "noradId": "67774",
    "line1": "1 67774U 26030L   26170.83335647 -.00040340  00000+0 -49579-2 0  9995",
    "line2": "2 67774  51.8993  91.3863 0003114  27.3602  45.4313 14.82662417  4248"
  },
  {
    "name": "KUIPER-00208",
    "noradId": "67775",
    "line1": "1 67775U 26030M   26170.83263655  .00001879  00000+0  29821-3 0  9996",
    "line2": "2 67775  51.8974 118.3023 0007943  44.0237 316.1355 14.76456508 20348"
  },
  {
    "name": "KUIPER-00209",
    "noradId": "67776",
    "line1": "1 67776U 26030N   26170.86366148  .00002465  00000+0  35228-3 0  9991",
    "line2": "2 67776  51.9002 116.3885 0000626  57.8377 302.2646 14.79928519 20375"
  },
  {
    "name": "KUIPER-00213",
    "noradId": "67777",
    "line1": "1 67777U 26030P   26170.56245351  .00002689  00000+0  38138-3 0  9992",
    "line2": "2 67777  51.8956 115.2100 0001063  85.3960 274.7124 14.79951400 20369"
  },
  {
    "name": "KUIPER-00214",
    "noradId": "67778",
    "line1": "1 67778U 26030Q   26170.86907000  .00000608  00000+0  10881-3 0  9996",
    "line2": "2 67778  51.8999 111.3538 0000750  86.5329 273.5719 14.79929822 20442"
  },
  {
    "name": "KUIPER-00215",
    "noradId": "67779",
    "line1": "1 67779U 26030R   26170.52068853  .00001616  00000+0  26108-3 0  9993",
    "line2": "2 67779  51.8991  99.6652 0000502  49.7223 310.3782 14.76367765 20583"
  },
  {
    "name": "KUIPER-00218",
    "noradId": "67780",
    "line1": "1 67780U 26030S   26170.12337431 -.00003256  00000+0 -39852-3 0  9996",
    "line2": "2 67780  51.8977 117.0638 0000711 107.9000 252.2040 14.79908774 20305"
  },
  {
    "name": "KUIPER-00220",
    "noradId": "67781",
    "line1": "1 67781U 26030T   26170.83335647 -.00009296  00000+0 -55336-3 0  9997",
    "line2": "2 67781  51.8911  90.7709 0009791  75.4817 180.6997 15.09609776  4415"
  },
  {
    "name": "KUIPER-00222",
    "noradId": "67782",
    "line1": "1 67782U 26030U   26170.56783887 -.00000121  00000+0  13088-4 0  9997",
    "line2": "2 67782  51.8965 110.2538 0000657  51.9052 308.1970 14.79946893 20433"
  },
  {
    "name": "KUIPER-00223",
    "noradId": "67783",
    "line1": "1 67783U 26030V   26170.54222670  .00003056  00000+0  42954-3 0  9996",
    "line2": "2 67783  51.9012 102.6545 0001112  93.2763 266.8326 14.79952846 20548"
  },
  {
    "name": "KUIPER-00225",
    "noradId": "67784",
    "line1": "1 67784U 26030W   26170.80698250  .00002751  00000+0  38982-3 0  9994",
    "line2": "2 67784  51.8984 106.6545 0001179 115.6466 244.4618 14.79925208 20506"
  },
  {
    "name": "KUIPER-00226",
    "noradId": "67785",
    "line1": "1 67785U 26030X   26170.83335647 -.02183278  00000+0 -12600+0 0  9999",
    "line2": "2 67785  51.8812  94.3960 0018983  68.6777 233.8035 15.15641760  5714"
  },
  {
    "name": "KUIPER-00259",
    "noradId": "67786",
    "line1": "1 67786U 26030Y   26170.23285651  .00002742  00000+0  38901-3 0  9991",
    "line2": "2 67786  51.8988 109.0934 0000028 135.5500 224.5465 14.79870099 20420"
  },
  {
    "name": "KUIPER-00260",
    "noradId": "67787",
    "line1": "1 67787U 26030Z   26170.83335647  .00006934  00000+0  93730-3 0  9997",
    "line2": "2 67787  51.9002 104.0286 0001389 107.5224 199.7252 14.79948487  4007"
  },
  {
    "name": "KUIPER-00262",
    "noradId": "67788",
    "line1": "1 67788U 26030AA  26170.26898808 -.00017635  00000+0 -22936-2 0  9999",
    "line2": "2 67788  51.8990 106.4400 0000733  82.5133 277.5913 14.79871426 20465"
  },
  {
    "name": "KUIPER-00266",
    "noradId": "67789",
    "line1": "1 67789U 26030AB  26170.50834569  .00002141  00000+0  31010-3 0  9999",
    "line2": "2 67789  51.8982 102.8842 0003067 101.9684 258.1622 14.79899270 20534"
  },
  {
    "name": "KUIPER-00268",
    "noradId": "67790",
    "line1": "1 67790U 26030AC  26170.54483021 -.00001437  00000+0 -15944-3 0  9995",
    "line2": "2 67790  51.9048 100.2246 0000468 154.3412 205.7574 14.79961145 20572"
  },
  {
    "name": "KUIPER-00270",
    "noradId": "67791",
    "line1": "1 67791U 26030AD  26170.83335647 -.00024008  00000+0 -19717-2 0  9998",
    "line2": "2 67791  51.8944  89.6351 0009050  42.2547 152.2234 14.98440017  4712"
  },
  {
    "name": "KUIPER-00274",
    "noradId": "67792",
    "line1": "1 67792U 26030AE  26170.83528152 -.00007266  00000+0 -92463-3 0  9991",
    "line2": "2 67792  51.9016 111.4270 0001548 145.0964 215.0100 14.79951656 20440"
  },
  {
    "name": "KUIPER-00275",
    "noradId": "67793",
    "line1": "1 67793U 26030AF  26170.83335647 -.00029512  00000+0 -34476-2 0  9994",
    "line2": "2 67793  51.9000  91.5323 0009464  61.4167 131.1374 14.84567709  5321"
  },
  {
    "name": "KUIPER-00276",
    "noradId": "67794",
    "line1": "1 67794U 26030AG  26170.83335647 -.00021231  00000+0 -22522-2 0  9994",
    "line2": "2 67794  51.8979  96.6072 0018607  39.3976 303.7270 14.88204568  4982"
  },
  {
    "name": "KUIPER-00279",
    "noradId": "67795",
    "line1": "1 67795U 26030AH  26170.83335647 -.00002420  00000+0 -13329-3 0  9990",
    "line2": "2 67795  51.8892  87.7508 0009025  50.3501 241.3715 15.08888436  3966"
  },
  {
    "name": "KUIPER-00131",
    "noradId": "68573",
    "line1": "1 68573U 26072A   26170.31815235  .00001606  00000+0  23958-3 0  9992",
    "line2": "2 68573  51.8998 186.2258 0000410  73.2032 286.8976 14.79933025 11433"
  },
  {
    "name": "KUIPER-00189",
    "noradId": "68574",
    "line1": "1 68574U 26072B   26170.34907444  .00001577  00000+0  23592-3 0  9991",
    "line2": "2 68574  51.8986 188.5760 0000662 106.7102 253.3934 14.79909726 11404"
  },
  {
    "name": "KUIPER-00192",
    "noradId": "68575",
    "line1": "1 68575U 26072C   26170.25328855  .00001661  00000+0  24676-3 0  9993",
    "line2": "2 68575  51.8995 184.0102 0000412  77.6038 282.4970 14.79940452 11463"
  },
  {
    "name": "KUIPER-00193",
    "noradId": "68576",
    "line1": "1 68576U 26072D   26170.83335647  .00001090  00000+0  17322-3 0  9991",
    "line2": "2 68576  51.9027 170.8948 0000801  61.0140  22.4120 14.79594107  4851"
  },
  {
    "name": "KUIPER-00194",
    "noradId": "68577",
    "line1": "1 68577U 26072E   26170.28993289  .00001572  00000+0  23557-3 0  9995",
    "line2": "2 68577  51.9014 181.3585 0000436 346.5655  13.5296 14.79860233 11509"
  },
  {
    "name": "KUIPER-00229",
    "noradId": "68578",
    "line1": "1 68578U 26072F   26170.35190946  .00001644  00000+0  24483-3 0  9992",
    "line2": "2 68578  51.9009 186.0711 0000452 107.6008 252.5004 14.79892968 11448"
  }
]